STARLINK-31430          
1 59375U 24062B   24114.58688367  .00021864  00000+0  39971-3 0  9998
2 59375  53.1608 212.5001 0001673  71.3555 288.7636 15.49333953  4412
STARLINK-31695          
1 59376U 24062C   24113.81246041 -.00024008  00000+0 -42523-3 0  9995
2 59376  53.1610 216.2048 0002231  40.2102 319.9072 15.49285550  4412
STARLINK-31716          
1 59377U 24062D   24114.58619648  .00015238  00000+0  28134-3 0  9993
2 59377  53.1604 212.4958 0001469  75.1526 284.9646 15.49325213  4535
STARLINK-31710          
1 59378U 24062E   24114.58585350 -.00001698  00000+0 -22477-4 0  9998
2 59378  53.1611 212.4938 0001372  93.6702 266.4464 15.49299719  4417
STARLINK-31698          
1 59379U 24062F   24114.91667824  .00012762  00000+0  29568-3 0  9992
2 59379  53.1597 210.9893 0001350  75.0397 292.2468 15.42820132  4686
STARLINK-31680          
1 59380U 24062G   24114.58514950  .00018704  00000+0  34304-3 0  9994
2 59380  53.1604 212.4939 0001860  61.4912 298.6284 15.49350797  4243
STARLINK-31713          
1 59381U 24062H   24115.25001157 -.02154547  00000+0 -48803-1 0  9997
2 59381  53.1591 209.3123 0001512  44.5952  64.1488 15.46212161  4699
STARLINK-31705          
1 59382U 24062J   24114.58446259  .00021548  00000+0  39414-3 0  9999
2 59382  53.1613 212.4859 0002610  43.8500 316.2716 15.49328454  4418
STARLINK-31709          
1 59383U 24062K   24114.58411569  .00027676  00000+0  50339-3 0  9993
2 59383  53.1611 212.4836 0002102  64.7593 295.3634 15.49337283  4586
STARLINK-31715          
1 59384U 24062L   24114.58377071 -.00008666  00000+0 -14798-3 0  9992
2 59384  53.1609 212.4760 0001993  68.5547 291.5675 15.49294944  4598
STARLINK-31717          
1 59385U 24062M   24114.58342053 -.00018343  00000+0 -32265-3 0  9997
2 59385  53.1602 212.4766 0002023  77.7306 282.3929 15.49293519  4595
STARLINK-31688          
1 59386U 24062N   24114.91667824 -.00409477  00000+0 -95922-2 0  9991
2 59386  53.1593 210.9846 0001781  76.6499 292.4662 15.43127209  4646
STARLINK-31714          
1 59387U 24062P   24115.25001157 -.00095007  00000+0 -21457-2 0  9993
2 59387  53.1593 209.3500 0001676 101.5609 347.5667 15.42913286  4510
STARLINK-31643          
1 59388U 24062Q   24114.51821336  .00023116  00000+0  42195-3 0  9994
2 59388  53.1611 212.7782 0001524  99.8752 260.2430 15.49342541  4563
STARLINK-31647          
1 59389U 24062R   24115.25001157 -.00279862  00000+0 -64691-2 0  9995
2 59389  53.1592 209.2981 0001373  93.9509  20.8899 15.43017725  4691
STARLINK-31649          
1 59390U 24062S   24114.58169603  .00000689  00000+0  20467-4 0  9995
2 59390  53.1601 212.4662 0001906  67.3135 292.8076 15.49301881  4590
STARLINK-31644          
1 59391U 24062T   24114.91667824 -.00004954  00000+0 -10227-3 0  9994
2 59391  53.1596 211.0348 0000727  84.9591 258.5165 15.42774333  4644
STARLINK-31626          
1 59392U 24062U   24114.58100514 -.00010126  00000+0 -17433-3 0  9990
2 59392  53.1601 212.4574 0002658  45.2748 314.8477 15.49287892  4599
STARLINK-31443          
1 59393U 24062V   24114.58983440  .00155002  00000+0  55128-3 0  9992
2 59393  53.1615 209.5946 0002876  28.0545 332.0636 15.88004336  4616
STARLINK-31607          
1 59394U 24062W   24114.58031067 -.00002699  00000+0 -40497-4 0  9991
2 59394  53.1602 212.4583 0001745  88.9290 271.1919 15.49298022  4586
2024-063A               
1 59395U 24063A   24115.17104644  .00011273  00000+0  46180-3 0  9991
2 59395  34.9955  16.7179 0004605 105.6563 254.4660 15.23498133  3245
2024-063B               
1 59396U 24063B   24115.17288764  .00017340  00000+0  80739-3 0  9997
2 59396  34.7256  16.7418 0024690  75.9604 284.3848 15.18783765  3225
STARLINK-31608          
1 59397U 24062X   24114.57995568  .00012084  00000+0  22478-3 0  9993
2 59397  53.1613 212.4504 0001661  79.6576 280.4621 15.49336693  4372
STARLINK-31534          
1 59398U 24064A   24114.91667824 -.02175066  00000+0 -49820-1 0  9997
2 59398  42.9999 356.9935 0001350 255.4888 359.1549 15.45709247  4056
STARLINK-31544          
1 59399U 24064B   24114.91667824 -.00003308  00000+0 -50578-4 0  9990
2 59399  42.9997 356.9615 0002049 278.4825 349.1373 15.50575585  4115
STARLINK-31545          
1 59400U 24064C   24114.91667824 -.00017771  00000+0 -29772-3 0  9993
2 59400  42.9998 356.9661 0001833 269.1996 356.4945 15.50583932  4117
STARLINK-31507          
1 59401U 24064D   24114.91667824  .00006363  00000+0  11425-3 0  9993
2 59401  42.9999 356.9563 0002031 275.9969 353.5556 15.50563832  4052
STARLINK-31543          
1 59402U 24064E   24115.25001157 -.00034980  00000+0 -59246-3 0  9994
2 59402  42.9998 355.0006 0002046 273.4679  60.9009 15.50607151  4168
STARLINK-31366          
1 59403U 24064F   24115.25001157 -.00104957  00000+0 -18031-2 0  9993
2 59403  42.9997 354.9956 0002292 273.0462  63.2428 15.50641210  4164
STARLINK-31374          
1 59404U 24064G   24115.25001157 -.01171955  00000+0 -13857-1 0  9997
2 59404  42.9991 354.6881 0002454 277.7824 183.7504 15.63115759  3953
STARLINK-31400          
1 59405U 24064H   24114.91667824 -.02179341  00000+0 -44686-1 0  9991
2 59405  42.9998 356.9395 0001814 259.1812  16.9056 15.48864203  4112
STARLINK-31391          
1 59406U 24064J   24115.25001157 -.02172049  00000+0 -42254-1 0  9998
2 59406  42.9999 354.9807 0001751 274.4528  67.5979 15.50325381  4167
STARLINK-31387          
1 59407U 24064K   24115.25001157  .00063133  00000+0  10746-2 0  9990
2 59407  43.0000 354.9761 0001968 289.8643  54.1427 15.50544190  4161
STARLINK-31367          
1 59408U 24064L   24115.25001157 -.01735640  00000+0 -25129-1 0  9993
2 59408  42.9998 353.8351 0002823 257.0937 186.5380 15.58094814  4173
STARLINK-31396          
1 59409U 24064M   24114.91667824  .00007039  00000+0  12577-3 0  9991
2 59409  42.9998 356.9175 0002533 265.9728  18.9574 15.50561874  4097
STARLINK-31412          
1 59410U 24064N   24115.25001157  .00066832  00000+0  11365-2 0  9991
2 59410  42.9998 354.9612 0001958 284.5079  65.2536 15.50548985  4168
STARLINK-31483          
1 59411U 24064P   24115.25001157  .00033278  00000+0  57093-3 0  9999
2 59411  42.9998 354.9566 0002169 287.8935  63.7894 15.50564633  4167
STARLINK-31568          
1 59412U 24064Q   24115.25001157  .00055274  00000+0  94202-3 0  9993
2 59412  42.9998 354.9516 0001987 261.4803  92.1204 15.50558611  4162
STARLINK-31615          
1 59413U 24064R   24114.91667824 -.00051880  00000+0 -88395-3 0  9992
2 59413  42.9997 356.8979 0001662 267.4215  25.1839 15.50591298  4112
STARLINK-31457          
1 59414U 24064S   24114.84762027  .00255925  00000+0  28610-2 0  9993
2 59414  42.9994 357.0701 0004283 240.4770 119.5667 15.61129107  4109
STARLINK-31398          
1 59415U 24064T   24114.91667824 -.00014465  00000+0 -24125-3 0  9993
2 59415  42.9996 356.8877 0001647 266.4474  30.0148 15.50571784  4115
STARLINK-31399          
1 59416U 24064U   24114.91667824 -.00019703  00000+0 -33075-3 0  9998
2 59416  42.9996 356.8829 0002089 270.0858  28.2769 15.50587571  4110
STARLINK-31401          
1 59417U 24064V   24114.91667824  .00009572  00000+0  16891-3 0  9997
2 59417  42.9998 356.8790 0002599 236.0886  64.2215 15.50556844  3900
STARLINK-31414          
1 59418U 24064W   24114.91667824 -.00016653  00000+0 -27878-3 0  9995
2 59418  42.9999 356.8736 0001622 260.3017  41.9348 15.50564599  4113
STARLINK-31415          
1 59419U 24064X   24114.91667824 -.02178755  00000+0 -47794-1 0  9997
2 59419  42.9998 356.8810 0001415 260.7273  38.3342 15.46953827  4119
STARLINK-31466          
1 59420U 24064Y   24114.91667824 -.02142242  00000+0 -42171-1 0  9995
2 59420  42.9999 356.8643 0001582 273.8253  32.1258 15.49946113  4115
STARLINK-11087 [DTC]    
1 59421U 24065A   24115.17572683  .00246180  00000+0  18420-2 0  9997
2 59421  53.1582 237.7411 0001329  70.9870 289.1293 15.71408606  3878
STARLINK-11090 [DTC]    
1 59422U 24065B   24115.17307217  .00061745  00000+0  47482-3 0  9990
2 59422  53.1580 237.7265 0000720  74.2322 285.8776 15.71459564  3886
STARLINK-11093 [DTC]    
1 59423U 24065C   24114.85246108  .00098289  00000+0  74918-3 0  9993
2 59423  53.1576 239.2813 0005065  56.6320 303.5183 15.71466852  3829
STARLINK-11083 [DTC]    
1 59424U 24065D   24114.84980205 -.00029655  00000+0 -22374-3 0  9998
2 59424  53.1569 239.2677 0000876  98.1875 261.9243 15.71453409  3773
STARLINK-11085 [DTC]    
1 59425U 24065E   24114.84718172  .00201503  00000+0  15127-2 0  9990
2 59425  53.1591 239.2513 0001025  45.9228 314.1875 15.71471410  3782
STARLINK-11089 [DTC]    
1 59426U 24065F   24115.25001157  .00125252  00000+0  94973-3 0  9998
2 59426  53.1659 236.8414 0001214  37.9995 292.2316 15.71495613  3892
STARLINK-31757          
1 59427U 24065G   24114.99172206  .00182021  00000+0  39880-2 0  9995
2 59427  53.1605 240.1813 0002189  50.0245 310.0954 15.42941637  3832
STARLINK-31752          
1 59428U 24065H   24115.16909188  .00300841  00000+0  51806-2 0  9997
2 59428  53.1581 239.1563 0000233  91.3001 268.8035 15.49476822  3861
STARLINK-31773          
1 59429U 24065J   24113.87860733 -.00133230  00000+0 -24347-2 0  9994
2 59429  53.1599 245.3204 0002040  33.7510 326.3628 15.49232779  3673
STARLINK-31772          
1 59430U 24065K   24115.16838685  .00206132  00000+0  36061-2 0  9997
2 59430  53.1590 239.1494 0001471 118.2260 241.8898 15.49397867  3867
STARLINK-31613          
1 59431U 24065L   24115.16803539  .00257644  00000+0  44737-2 0  9991
2 59431  53.1590 239.1471 0001166 129.0773 231.0340 15.49408613  3868
STARLINK-31780          
1 59432U 24065M   24115.16768529  .00180606  00000+0  31753-2 0  9998
2 59432  53.1597 239.1453 0001445  34.2752 325.8350 15.49358681  3862
